[{"OBJECT_NAME":"OTTER","OBJECT_ID":"2025-009Q","EPOCH":"2026-03-09T17:21:07.902432","MEAN_MOTION":15.27809545,"ECCENTRICITY":0.00035728,"INCLINATION":97.4065,"RA_OF_ASC_NODE":151.3812,"ARG_OF_PERICENTER":310.771,"MEAN_ANOMALY":49.3219,"EPHEMERIS_TYPE":0,"CLASSIFICATION_TYPE":"U","NORAD_CAT_ID":62623,"ELEMENT_SET_NO":999,"REV_AT_EPOCH":6372,"BSTAR":0.00045151206,"MEAN_MOTION_DOT":0.00012198,"MEAN_MOTION_DDOT":0},{"OBJECT_NAME":"STARLINK-35779","OBJECT_ID":"2025-294T","EPOCH":"2026-03-09T21:48:33.140160","MEAN_MOTION":15.27584387,"ECCENTRICITY":0.00014375,"INCLINATION":43.0045,"RA_OF_ASC_NODE":36.7566,"ARG_OF_PERICENTER":242.4756,"MEAN_ANOMALY":117.595,"EPHEMERIS_TYPE":0,"CLASSIFICATION_TYPE":"U","NORAD_CAT_ID":67047,"ELEMENT_SET_NO":999,"REV_AT_EPOCH":1483,"BSTAR":0.001309709,"MEAN_MOTION_DOT":0.00035959,"MEAN_MOTION_DDOT":0}]
